ONEWEB-0136             
1 47282U 20100AA  24201.85018763 -.00002245  00000+0 -62772-2 0  9993
2 47282  87.8959 129.5080 0001798  67.6464 292.4855 13.12456113173197
ONEWEB-0137             
1 47283U 20100AB  24201.88425166  .00000124  00000+0  30837-3 0  9996
2 47283  87.8952 129.5246 0001925  80.3079 279.8266 13.12442585173105
ONEWEB-0138             
1 47284U 20100AC  24201.55821763  .00000462  00000+0  12482-2 0  9994
2 47284  87.8952 129.6018 0001872  77.7410 282.3928 13.12443041173140
ONEWEB-0139             
1 47285U 20100AD  24201.52100801 -.00001699  00000+0 -47591-2 0  9999
2 47285  87.8962 129.5789 0001765  76.2046 283.9279 13.12428337173211
ONEWEB-0140             
1 47286U 20100AE  24201.85667921  .00000312  00000+0  83157-3 0  9995
2 47286  87.8952 129.5182 0001862  73.8688 286.2645 13.12444432173218
ONEWEB-0141             
1 47287U 20100AF  24201.52078739 -.00000340  00000+0 -98028-3 0  9999
2 47287  87.8953 129.5968 0002073  82.3922 277.7442 13.12439401173167
ONEWEB-0142             
1 47288U 20100AG  24201.87046876  .00000421  00000+0  11351-2 0  9996
2 47288  87.8954 129.5084 0001796  83.0294 277.1038 13.12443349173205
ONEWEB-0143             
1 47289U 20100AH  24201.82423169 -.00000395  00000+0 -11323-2 0  9997
2 47289  87.8956 129.5382 0002050  76.3669 283.7688 13.12442620173175
